#aV2015  1 30  0  0  0.00000000     288 DD+AD WGS84 FIT  NGA
## 1829 432000.00000000   300.00000000 57052 0.0000000000000
+   31     1  2  3  4  5  6  7  8  9 10 11 12 13 14 15 16 17
+         18 19 20 21 22 23 24 25 27 28 29 30 31 32  0  0  0
+          0  0  0  0  0  0  0  0  0  0  0  0  0  0  0  0  0
+          0  0  0  0  0  0  0  0  0  0  0  0  0  0  0  0  0
+          0  0  0  0  0  0  0  0  0  0  0  0  0  0  0  0  0
++         2  2  2  2  2  2  2  2  2  2  2  2  2  2  2  2  2
++         2  2  2  2  2  2  2  2  2  2  2  2  2  2  0  0  0
++         0  0  0  0  0  0  0  0  0  0  0  0  0  0  0  0  0
++         0  0  0  0  0  0  0  0  0  0  0  0  0  0  0  0  0
++         0  0  0  0  0  0  0  0  0  0  0  0  0  0  0  0  0
%c cc cc ccc ccc cccc cccc cccc cccc ccccc ccccc ccccc ccccc
%c cc cc ccc ccc cccc cccc cccc cccc ccccc ccccc ccccc ccccc
%f  0.0000000  0.000000000  0.00000000000  0.000000000000000
%f  0.0000000  0.000000000  0.00000000000  0.000000000000000
%i    0    0    0    0      0      0      0      0         0
%i    0    0    0    0      0      0      0      0         0
/*      NGA, ST. LOUIS,MO.                                  
/*   EPHEMERIS COMPUTED FROM  1 DAYS OF DATA                
/*   EPOCHA SMOOTHER                                       
/* CCCCCCCCCCCCCCCCCCCCCCCCCCCCCCCCCCCCCCCCCCCCCCCCCCCCCCCCC
*  2015  1 30  5 55  0.00000000
P  1  13238.603661 -16743.725926  15647.298499     -9.596851                    
V  1   -617.237317  20121.106841  22147.204948      0.004439                    
P  2 -14213.664249  -8449.680982 -20530.867726    544.892856                    
V  2   3350.618638 -26626.567441   8029.526387      0.022759                    
P  3  22329.757636 -13415.901952  -5305.985239    179.925791                    
V  3   7276.023509    -71.012091  30728.660227      0.227538                    
P  4  15579.420598  -6214.210954  20224.518942     -6.400509                    
V  4  -1764.426394  26496.402639   9617.454893     -0.006445                    
P  5 -23529.111766    205.150380 -12547.479375   -285.982391                    
V  5  13553.092328  -8524.765817 -25487.892944      0.051674                    
P  6  -7219.821420 -21349.835221 -14074.446273     66.480240                    
V  6   4308.229561 -17450.565256  24258.055003      0.117151                    
P  7   7050.780152 -24951.883216  -4703.575426    435.941062                    
V  7   1769.769914   6489.233684 -31475.379531      0.032823                    
P  8  11836.544193   9907.530787 -21514.879223     17.373496                    
V  8  -7148.261792  26645.438289   7663.328506      0.002219                    
P  9   2915.483165 -16177.139071 -20869.000563    -71.023861                    
V  9  21628.914022  15316.534149  -8864.291402     -0.121846                    
P 10  -8904.731548 -13347.594849 -21579.631869   -161.046856                    
V 10  24518.753596 -10197.595526  -3454.011242     -0.017548                    
P 11  13772.799161 -10699.110614  19482.467691   -554.358933                    
V 11   7005.460884  25314.155706   8865.940032     -0.026527                    
P 12 -24001.248796  10767.350545  -2748.790043    265.377063                    
V 12  -3913.404860   -778.287954  32263.113691      0.030640                    
P 13 -21717.238381 -10863.935371  10462.720843    -83.502384                    
V 13  -8282.376408 -10925.444323 -28249.032442     -0.036765                    
P 14  13498.099436  20920.587474   9688.963319     92.129451                    
V 14 -10352.672820  -6291.595794  28547.676767     -0.035401                    
P 15 -19453.780263   2654.600977  17941.043210   -229.296865                    
V 15 -17800.118723 -14563.606694 -16748.796757     -0.022280                    
P 16  23451.002677    800.465080 -12861.376630   -160.718316                    
V 16 -14741.624062   6466.495377 -26235.864889      0.032318                    
P 17 -12222.470628 -20698.478558  11826.328691   -152.975797                    
V 17  12314.995889   7833.103526  26883.700861     -0.022304                    
P 18  -6012.867708  18126.885573  18813.803165    375.897670                    
V 18 -21983.429365   7526.200404 -14963.858806      0.027271                    
P 19  20827.235467   4182.227982  16049.895601   -498.611927                    
V 19  14049.460813  15011.200392 -21460.341740     -0.014889                    
P 20   7098.294552 -18557.721717 -17799.316341    284.194225                    
V 20  20931.275365  -8138.978303  17100.309134      0.041362                    
P 21  -2281.772217  26237.670152    944.717457   -411.115568                    
V 21  -4038.980901    -32.985671 -31377.343653     -0.041577                    
P 22   7545.800423  14298.094154  21295.711021    312.758601                    
V 22 -24418.208867  10778.958529   1256.765075      0.042640                    
P 23  13611.189276  -8559.562291 -21068.026187    -85.236248                    
V 23  21120.397166  16879.493377   6323.256515     -0.026367                    
P 24 -14112.572012  13881.511475  17617.095260    -42.600007                    
V 24    699.040428 -22553.539118  18439.840678     -0.006302                    
P 25 -15377.686541  16603.867631 -13855.544081     -0.133818                    
V 25 -16840.748599   5065.788601  25055.340924     -0.026229                    
P 27  23037.702259  11223.119100   7152.482473     47.875043                    
V 27   5762.664144   7411.068321 -30061.877177      0.026641                    
P 28  -1403.634566 -15123.415101  22406.900552    415.969666                    
V 28  25522.965545  -8441.922145  -4314.773923      0.026203                    
P 29  -6634.084969  13776.377978 -21688.626795    589.013401                    
V 29 -21245.996919 -17582.976828  -4623.963635      0.022464                    
P 30   1025.338115 -25839.637741   5943.411599    -85.971259                    
V 30   4320.512198  -6836.434837 -30498.275579      0.006703                    
P 31   8030.446684  19156.018226 -16210.501486    324.421632                    
V 31  -5091.891819  20402.814974  21727.991770     -0.008338                    
P 32  25202.488212  -3079.922002   6751.764137   -235.795097                    
V 32  -7203.538925   6080.103555  30180.953504      0.089310                    
EOF
